
STARLINK-30955          
1 58417U 23180R   25043.30556525  .00000852  00000+0  78112-4 0  9991
2 58417  43.0042  17.0410 0001008 275.6367  84.4360 15.02542035 68868
STARLINK-30895          
1 58418U 23180S   25043.25241163  .00000260  00000+0  34309-4 0  9998
2 58418  43.0043  17.5147 0001060 277.1054  82.9668 15.02537346 68740
STARLINK-30917          
1 58419U 23180T   25043.58947150  .00003526  00000+0  14451-3 0  9997
2 58419  42.9987   7.1590 0001804 269.5424  90.5221 15.25922311 69000
STARLINK-30899          
1 58420U 23180U   25043.31223104  .00002028  00000+0  16514-3 0  9994
2 58420  43.0042  17.1041 0001192 270.5076  89.5630 15.02535748 68755
STARLINK-30902          
1 58421U 23180V   25043.62464193  .00000493  00000+0  51572-4 0  9992
2 58421  43.0038  15.1451 0001144 269.5806  90.4905 15.02533762 68806
STARLINK-30912          
1 58422U 23180W   25043.45309738  .00014812  00000+0  57448-3 0  9994
2 58422  43.0008 313.4865 0001414 264.6133  95.4557 15.25935624 69623
STARLINK-30900          
1 58423U 23180X   25043.32221184  .00000139  00000+0  25390-4 0  9998
2 58423  43.0049  17.1294 0001514 261.7315  98.3356 15.02537369 68755
STARLINK-30908          
1 58424U 23180Y   25042.97182255  .00000537  00000+0  54852-4 0  9991
2 58424  43.0084  17.9016 0000731 280.9915  79.0846 15.02515887 68823
2023-181A               
1 58425U 23181A   25043.53213732 -.00000041  00000+0  15644-3 0  9997
2 58425  49.9611 322.2067 0013139 217.7193 142.2764 13.41434648 60027
COSMOS 2572             
1 58435U 23182A   25043.53465010  .00012480  19486-5  43652-4 0  9991
2 58435  96.6980 150.3701 0019601 212.7753 147.2307 15.89811042 70691
STARLINK-30869          
1 58437U 23183A   25043.60173017  .00001274  00000+0  10936-3 0  9998
2 58437  43.0059   3.0613 0001308 264.9912  95.0781 15.02546544 68031
STARLINK-30969          
1 58438U 23183B   25043.60506269 -.00014059  00000+0 -10261-2 0  9995
2 58438  43.0036   3.0867 0000648 281.2010  78.8760 15.02596185 68037
STARLINK-30951          
1 58439U 23183C   25043.59841344 -.00001646  00000+0 -10684-3 0  9998
2 58439  43.0042   3.0352 0001079 269.1698  90.9021 15.02522848 68030
STARLINK-30950          
1 58440U 23183D   25043.29674480  .00031263  00000+0  10178-2 0  9995
2 58440  42.9958 261.4661 0007381 276.8688  83.1325 15.31266446 69195
STARLINK-30942          
1 58441U 23183E   25043.58176194 -.00000835  00000+0 -46765-4 0  9993
2 58441  43.0066   2.9100 0000950 276.6753  83.3981 15.02523101 68034
STARLINK-30959          
1 58442U 23183F   25043.57509949  .00000305  00000+0  37665-4 0  9990
2 58442  43.0108   2.8601 0002143 264.4601  95.5997 15.02533648 68039
STARLINK-30971          
1 58443U 23183G   25043.25267216 -.00012439  00000+0 -90583-3 0  9994
2 58443  43.0031   4.7350 0001250 265.7150  94.3550 15.02600481 67983
STARLINK-30963          
1 58444U 23183H   25043.57177103  .00000002  00000+0  15204-4 0  9994
2 58444  43.0044   2.8364 0001046 277.5567  82.5156 15.02534812 68030
STARLINK-30961          
1 58445U 23183J   25042.97014290 -.00000632  00000+0 -31743-4 0  9992
2 58445  43.0048   6.0568 0001275 263.9744  96.0953 15.02531467 67944
STARLINK-30975          
1 58446U 23183K   25043.15082460  .00002850  00000+0  22602-3 0  9993
2 58446  43.0027   5.6781 0001498 267.9676  92.0995 15.02522847 67987
STARLINK-30976          
1 58447U 23183L   25043.22606722  .00002624  00000+0  20930-3 0  9996
2 58447  43.0047   4.5721 0001527 268.8162  91.2506 15.02529618 67987
STARLINK-30926          
1 58448U 23183M   25043.28920624  .00000660  00000+0  63927-4 0  9995
2 58448  43.0042   4.1147 0000976 267.2334  92.8397 15.02535479 67990
STARLINK-30943          
1 58449U 23183N   25043.15686959  .00001318  00000+0  11261-3 0  9996
2 58449  43.0047 339.6968 0001202 272.6436  87.4269 15.02549781 68269
STARLINK-30946          
1 58450U 23183P   25043.60839314  .00001940  00000+0  15866-3 0  9999
2 58450  43.0034   3.1147 0001609 271.3347  88.7311 15.02538080 68034
STARLINK-30944          
1 58451U 23183Q   25043.56511400  .00001334  00000+0  11380-3 0  9992
2 58451  43.0040   2.7858 0001048 263.6688  96.4035 15.02532461 68008
STARLINK-30928          
1 58452U 23183R   25043.56178390 -.00000280  00000+0 -56362-5 0  9992
2 58452  43.0050   2.7615 0001118 278.0806  81.9910 15.02534664 68032
STARLINK-30957          
1 58453U 23183S   25043.61506292 -.00000475  00000+0 -20082-4 0  9990
2 58453  43.0022   3.1558 0000869 271.3901  88.6842 15.02530873 68033
STARLINK-30966          
1 58454U 23183T   25043.61172904 -.00000400  00000+0 -14547-4 0  9997
2 58454  43.0047   3.1299 0001200 275.7705  84.3001 15.02534653 68033
STARLINK-30935          
1 58455U 23183U   25043.59174077 -.00003096  00000+0 -21408-3 0  9995
2 58455  43.0043   2.9779 0001298 270.6173  89.4521 15.02563598 68033
STARLINK-30960          
1 58456U 23183V   25043.58999572  .00026463  00000+0  16159-2 0  9997
2 58456  43.0040 358.7520 0005637 165.8784 194.2219 15.09814596 68089
STARLINK-30958          
1 58457U 23183W   25043.57621494 -.00001306  00000+0 -81617-4 0  9996
2 58457  43.0090   2.8663 0001637 266.5560  93.5095 15.02547826 68037
STARLINK-30962          
1 58458U 23183X   25043.28588299  .00001147  00000+0  99989-4 0  9992
2 58458  43.0049   4.1324 0001156 274.0369  86.0341 15.02532820 67991
STARLINK-30977          
1 58459U 23183Y   25043.32251283  .00000061  00000+0  19604-4 0  9998
2 58459  43.0036   4.3993 0000256 243.5033 116.5783 15.02534842 67996
GNOMES-4                
1 58462U 23185A   25043.63151245  .00008679  00000+0  64115-3 0  9994
2 58462  97.5716 110.8593 0016091 165.3324 194.8372 15.03362163 65858
KORSAT 7                
1 58463U 23185B   25043.58599769  .00004001  00000+0  31203-3 0  9993
2 58463  97.6193 111.9503 0025194 184.5275 175.5726 15.01492149 65848
KOYOH                   
1 58464U 23185C   25043.59286527  .00009088  00000+0  55702-3 0  9990
2 58464  97.5906 113.9304 0007860 189.3269 170.7815 15.10363206 66025
BANE                    
1 58465U 23185D   25043.60833216  .00024205  00000+0  74713-3 0  9997
2 58465  97.3965 114.1438 0008412 149.1700 211.0038 15.33521929 66791
UHETSAT                 
1 58466U 23185E   25043.59595773  .00009540  00000+0  41358-3 0  9993
2 58466  97.4128 111.4572 0014598 239.8593 120.1198 15.22485005 66577
LILIUM-1                
1 58467U 23185F   25043.58612464  .00012013  00000+0  43411-3 0  9991
2 58467  97.3941 113.1700 0010840 152.4048 207.7769 15.28554977 66738
SPIRIT                  
1 58468U 23185G   25043.55597332  .00022558  00000+0  73441-3 0  9996
2 58468  97.3930 113.5033 0010697 152.3866 207.7946 15.31809701 66758
ION SCV-015             
1 58469U 23185H   25043.55484039  .00008971  00000+0  36447-3 0  9994
2 58469  97.6175 117.2904 0011764  32.7146 327.4817 15.24745425 66266
ROBUSTA-1E (ENSO)       
1 58470U 23185J   25043.56558239  .00042251  00000+0  10043-2 0  9993
2 58470  97.3913 116.1088 0009132 141.3979 218.7923 15.41499955 66929
HAYASAT-1               
1 58471U 23185K   25043.59761962  .00113091  00000+0  15173-2 0  9996
2 58471  97.3850 118.7442 0005091 137.9438 222.2209 15.57547740 67104
EIRSAT-1                
1 58472U 23185L   25043.59065986  .00056358  00000+0  11742-2 0  9990
2 58472  97.3906 116.7976 0008122 141.8974 218.2850 15.45368078 66977
STARLINK-30947          
1 58473U 23186A   25043.37041638  .00000304  00000+0  37545-4 0  9997
2 58473  43.0040  28.6573 0001113 264.2658  95.8058 15.02533741 67133
STARLINK-30995          
1 58474U 23186B   25043.43494003  .00000111  00000+0  95063-5 0  9999
2 58474  42.9985 299.6614 0007849 202.6435 157.4076 15.42736261 68319
STARLINK-30941          
1 58475U 23186C   25043.36375741  .00001518  00000+0  12745-3 0  9995
2 58475  43.0025  28.6051 0001422 258.9979 101.0703 15.02534353 67135
STARLINK-30980          
1 58476U 23186D   25043.22747193  .00001632  00000+0  13592-3 0  9993
2 58476  43.0043  29.3031 0001477 263.7925  96.2749 15.02528650 67113
STARLINK-30965          
1 58477U 23186E   25043.61557306  .00009772  00000+0  70034-3 0  9999
2 58477  43.0022  14.0590 0001280 191.7365 168.3449 15.04486513 67326
STARLINK-30990          
1 58478U 23186F   25043.29061910  .00001079  00000+0  94919-4 0  9996
2 58478  43.0047  28.9180 0001283 271.0028  89.0667 15.02539090 67164
STARLINK-30984          
1 58480U 23186H   25043.31047991  .00000904  00000+0  81982-4 0  9997
2 58480  43.0051  28.2028 0000941 273.0176  87.0559 15.02535151 67131
STARLINK-30956          
1 58481U 23186J   25043.59278592 -.00000701  00000+0 -36848-4 0  9999
2 58481  43.0047   2.4647 0001127 280.3757  79.6958 15.02541037 67456
STARLINK-30997          
1 58482U 23186K   25043.32713972  .00002713  00000+0  21582-3 0  9998
2 58482  43.0045  28.2996 0000770 186.1392 173.9441 15.02540654 67133
STARLINK-30994          
1 58483U 23186L   25043.14351504  .00003182  00000+0  13150-3 0  9991
2 58483  43.0033 303.3083 0000594 344.6703  15.4130 15.25894962 68108
STARLINK-30991          
1 58484U 23186M   25043.30714832  .00001553  00000+0  13002-3 0  9993
2 58484  43.0053  28.1749 0001213 268.7425  91.3278 15.02532213 67128
STARLINK-30979          
1 58485U 23186N   25043.21748301  .00001996  00000+0  16284-3 0  9998
2 58485  43.0045  29.2285 0000923 290.8537  69.2206 15.02530576 67062
STARLINK-31005          
1 58486U 23186P   25043.34714737  .00000469  00000+0  49795-4 0  9997
2 58486  43.0035  28.4781 0000654 220.6399 139.4394 15.02521398 67129
STARLINK-30987          
1 58487U 23186Q   25043.01139017  .00000297  00000+0  37081-4 0  9998
2 58487  43.0041  30.2603 0001020 278.8304  81.2423 15.02534944 67072
